start=new Date('2022-03-17T00:00:00.000Z').valueOf();
sats=[{"RCS_SIZE":"LARGE","REV_AT_EPOCH":"10998","LAUNCH_DATE":"2020-03-18","PERIOD":"95.800","MEAN_ANOMALY":"243.8890","DECAY_DATE":null,"RA_OF_ASC_NODE":"234.7568","SITE":"AFETR","NORAD_CAT_ID":"45418","INCLINATION":"52.9985","APOAPSIS":"557.942","BSTAR":"0.00076835000000","FILE":"3362094","GP_ID":"198918827","EPHEMERIS_TYPE":"0","ELEMENT_SET_NO":"999","CENTER_NAME":"EARTH","SEMIMAJOR_AXIS":"6935.400","MEAN_MOTION_DOT":"0.00010227","TIME_SYSTEM":"UTC","ARG_OF_PERICENTER":"116.2197","ECCENTRICITY":"0.00009760","OBJECT_ID":"2020-019BL","OBJECT_NAME":"STARLINK-1299","OBJECT_TYPE":"PAYLOAD","TLE_LINE2":"2 45418  52.9985 234.7568 0000976 116.2197 243.8890 15.03126392109989","COUNTRY_CODE":"US","MEAN_ELEMENT_THEORY":"SGP4","MEAN_MOTION_DDOT":"0.0000000000000","EPOCH":"2022-03-16T16:55:24.513312","PERIAPSIS":"556.588","MEAN_MOTION":"15.03126392","REF_FRAME":"TEME","CLASSIFICATION_TYPE":"U","TLE_LINE1":"1 45418U 20019BL  22075.70514483  .00010227  00000-0  76835-3 0  9996"},{"LAUNCH_DATE":"2020-03-18","PERIOD":"95.594","MEAN_ANOMALY":"293.3877","DECAY_DATE":null,"RA_OF_ASC_NODE":"214.0007","SITE":"AFETR","INCLINATION":"53.0547","NORAD_CAT_ID":"45419","RCS_SIZE":"LARGE","REV_AT_EPOCH":"11031","CENTER_NAME":"EARTH","APOAPSIS":"548.216","FILE":"3362094","BSTAR":"-0.00008326000000","GP_ID":"198919567","ELEMENT_SET_NO":"999","EPHEMERIS_TYPE":"0","OBJECT_ID":"2020-019BM","SEMIMAJOR_AXIS":"6925.448","MEAN_MOTION_DOT":"-0.00001520","ECCENTRICITY":"0.00013030","ARG_OF_PERICENTER":"66.7249","TIME_SYSTEM":"UTC","MEAN_MOTION_DDOT":"0.0000000000000","MEAN_ELEMENT_THEORY":"SGP4","EPOCH":"2022-03-16T15:54:18.785952","PERIAPSIS":"546.411","MEAN_MOTION":"15.06367392","REF_FRAME":"TEME","TLE_LINE1":"1 45419U 20019BM  22075.66271743 -.00001520  00000-0 -83260-4 0  9990","CLASSIFICATION_TYPE":"U","OBJECT_TYPE":"PAYLOAD","OBJECT_NAME":"STARLINK-1308","TLE_LINE2":"2 45419  53.0547 214.0007 0001303  66.7249 293.3877 15.06367392110311","COUNTRY_CODE":"US"},{"MEAN_MOTION_DOT":"-0.00006716","TIME_SYSTEM":"UTC","ARG_OF_PERICENTER":"69.8974","ECCENTRICITY":"0.00014540","SEMIMAJOR_AXIS":"6925.528","OBJECT_ID":"2020-025A","TLE_LINE2":"2 45531  53.0556 154.7383 0001454  69.8974 290.2171 15.06341578105314","COUNTRY_CODE":"US","OBJECT_TYPE":"PAYLOAD","OBJECT_NAME":"STARLINK-1329","REF_FRAME":"TEME","TLE_LINE1":"1 45531U 20025A   22075.49870458 -.00006716  00000-0 -43310-3 0  9994","CLASSIFICATION_TYPE":"U","MEAN_MOTION":"15.06341578","EPOCH":"2022-03-16T11:58:08.075712","PERIAPSIS":"546.386","MEAN_ELEMENT_THEORY":"SGP4","MEAN_MOTION_DDOT":"0.0000000000000","REV_AT_EPOCH":"10531","RCS_SIZE":"LARGE","NORAD_CAT_ID":"45531","INCLINATION":"53.0556","RA_OF_ASC_NODE":"154.7383","SITE":"AFETR","DECAY_DATE":null,"LAUNCH_DATE":"2020-04-22","PERIOD":"95.596","MEAN_ANOMALY":"290.2171","EPHEMERIS_TYPE":"0","ELEMENT_SET_NO":"999","BSTAR":"-0.00043310000000","FILE":"3361787","GP_ID":"198892816","APOAPSIS":"548.400","CENTER_NAME":"EARTH"},{"MEAN_MOTION":"15.06369943","REF_FRAME":"TEME","CLASSIFICATION_TYPE":"U","TLE_LINE1":"1 45532U 20025B   22075.50975704 -.00002136  00000-0 -12469-3 0  9990","MEAN_ELEMENT_THEORY":"SGP4","MEAN_MOTION_DDOT":"0.0000000000000","EPOCH":"2022-03-16T12:14:03.008256","PERIAPSIS":"546.518","OBJECT_NAME":"STARLINK-1338","OBJECT_TYPE":"PAYLOAD","TLE_LINE2":"2 45532  53.0544 154.6869 0001137  86.3677 273.7442 15.06369943105911","COUNTRY_CODE":"US","OBJECT_ID":"2020-025B","MEAN_MOTION_DOT":"-0.00002136","TIME_SYSTEM":"UTC","ARG_OF_PERICENTER":"86.3677","ECCENTRICITY":"0.00011370","SEMIMAJOR_AXIS":"6925.441","CENTER_NAME":"EARTH","ELEMENT_SET_NO":"999","EPHEMERIS_TYPE":"0","APOAPSIS":"548.093","FILE":"3361689","BSTAR":"-0.00012469000000","GP_ID":"198886183","RA_OF_ASC_NODE":"154.6869","SITE":"AFETR","INCLINATION":"53.0544","NORAD_CAT_ID":"45532","PERIOD":"95.594","LAUNCH_DATE":"2020-04-22","MEAN_ANOMALY":"273.7442","DECAY_DATE":null,"REV_AT_EPOCH":"10591","RCS_SIZE":"LARGE"},{"MEAN_ELEMENT_THEORY":"SGP4","MEAN_MOTION_DDOT":"0.0000000000000","PERIAPSIS":"450.189","EPOCH":"2022-03-16T13:39:44.906400","MEAN_MOTION":"15.37527678","CLASSIFICATION_TYPE":"U","TLE_LINE1":"1 45533U 20025C   22075.56926975  .00035974  00000-0  96850-3 0  9993","REF_FRAME":"TEME","OBJECT_NAME":"STARLINK-1339","OBJECT_TYPE":"PAYLOAD","COUNTRY_CODE":"US","TLE_LINE2":"2 45533  53.0473 133.7757 0004736  28.2777 331.8481 15.37527678106219","OBJECT_ID":"2020-025C","SEMIMAJOR_AXIS":"6831.560","ARG_OF_PERICENTER":"28.2777","TIME_SYSTEM":"UTC","ECCENTRICITY":"0.00047360","MEAN_MOTION_DOT":"0.00035974","CENTER_NAME":"EARTH","APOAPSIS":"456.660","GP_ID":"198887434","BSTAR":"0.00096850000000","FILE":"3361689","ELEMENT_SET_NO":"999","EPHEMERIS_TYPE":"0","MEAN_ANOMALY":"331.8481","PERIOD":"93.657","LAUNCH_DATE":"2020-04-22","DECAY_DATE":null,"SITE":"AFETR","RA_OF_ASC_NODE":"133.7757","NORAD_CAT_ID":"45533","INCLINATION":"53.0473","RCS_SIZE":"LARGE","REV_AT_EPOCH":"10621"},{"MEAN_MOTION_DDOT":"0.0000000000000","MEAN_ELEMENT_THEORY":"SGP4","EPOCH":"2022-03-16T14:05:32.116128","PERIAPSIS":"546.146","MEAN_MOTION":"15.06376667","REF_FRAME":"TEME","TLE_LINE1":"1 45534U 20025D   22075.58717727  .00001110  00000-0  93474-4 0  9994","CLASSIFICATION_TYPE":"U","OBJECT_TYPE":"PAYLOAD","OBJECT_NAME":"STARLINK-1341","TLE_LINE2":"2 45534  53.0533 154.3383 0001645  62.2038 297.9117 15.06376667105926","COUNTRY_CODE":"US","OBJECT_ID":"2020-025D","SEMIMAJOR_AXIS":"6925.420","MEAN_MOTION_DOT":"0.00001110","ECCENTRICITY":"0.00016450","ARG_OF_PERICENTER":"62.2038","TIME_SYSTEM":"UTC","CENTER_NAME":"EARTH","APOAPSIS":"548.424","FILE":"3362094","BSTAR":"0.00009347400000","GP_ID":"198919579","ELEMENT_SET_NO":"999","EPHEMERIS_TYPE":"0","LAUNCH_DATE":"2020-04-22","PERIOD":"95.594","MEAN_ANOMALY":"297.9117","DECAY_DATE":null,"RA_OF_ASC_NODE":"154.3383","SITE":"AFETR","INCLINATION":"53.0533","NORAD_CAT_ID":"45534","RCS_SIZE":"LARGE","REV_AT_EPOCH":"10592"},{"CENTER_NAME":"EARTH","EPHEMERIS_TYPE":"0","ELEMENT_SET_NO":"999","APOAPSIS":"548.294","GP_ID":"198919827","BSTAR":"0.00001457500000","FILE":"3362094","SITE":"AFETR","RA_OF_ASC_NODE":"154.2603","NORAD_CAT_ID":"45535","INCLINATION":"53.0519","MEAN_ANOMALY":"297.0045","LAUNCH_DATE":"2020-04-22","PERIOD":"95.591","DECAY_DATE":null,"REV_AT_EPOCH":"10593","RCS_SIZE":"LARGE","MEAN_MOTION":"15.06417259","TLE_LINE1":"1 45535U 20025E   22075.60552435 -.00000064  00000-0  14575-4 0  9994","CLASSIFICATION_TYPE":"U","REF_FRAME":"TEME","MEAN_MOTION_DDOT":"0.0000000000000","MEAN_ELEMENT_THEORY":"SGP4","PERIAPSIS":"546.027","EPOCH":"2022-03-16T14:31:57.303840","OBJECT_NAME":"STARLINK-1350","OBJECT_TYPE":"PAYLOAD","COUNTRY_CODE":"US","TLE_LINE2":"2 45535  53.0519 154.2603 0001637  63.1111 297.0045 15.06417259105933","OBJECT_ID":"2020-025E","ARG_OF_PERICENTER":"63.1111","ECCENTRICITY":"0.00016370","TIME_SYSTEM":"UTC","MEAN_MOTION_DOT":"-0.00000064","SEMIMAJOR_AXIS":"6925.296"},{"APOAPSIS":"548.293","FILE":"3361689","BSTAR":"0.00062006000000","GP_ID":"198886683","ELEMENT_SET_NO":"999","EPHEMERIS_TYPE":"0","CENTER_NAME":"EARTH","RCS_SIZE":"LARGE","REV_AT_EPOCH":"10591","PERIOD":"95.591","LAUNCH_DATE":"2020-04-22","MEAN_ANOMALY":"295.8624","DECAY_DATE":null,"RA_OF_ASC_NODE":"154.5362","SITE":"AFETR","NORAD_CAT_ID":"45536","INCLINATION":"53.0530","OBJECT_TYPE":"PAYLOAD","OBJECT_NAME":"STARLINK-1352","TLE_LINE2":"2 45536  53.0530 154.5362 0001624  64.2533 295.8624 15.06414597105917","COUNTRY_CODE":"US","MEAN_ELEMENT_THEORY":"SGP4","MEAN_MOTION_DDOT":"0.0000000000000","EPOCH":"2022-03-16T13:01:46.460640","PERIAPSIS":"546.044","MEAN_MOTION":"15.06414597","REF_FRAME":"TEME","TLE_LINE1":"1 45536U 20025F   22075.54289885  .00008970  00000-0  62006-3 0  9998","CLASSIFICATION_TYPE":"U","SEMIMAJOR_AXIS":"6925.304","MEAN_MOTION_DOT":"0.00008970","ECCENTRICITY":"0.00016240","ARG_OF_PERICENTER":"64.2533","TIME_SYSTEM":"UTC","OBJECT_ID":"2020-025F"},{"RA_OF_ASC_NODE":"118.7765","SITE":"AFETR","INCLINATION":"52.9987","NORAD_CAT_ID":"45537","PERIOD":"94.811","LAUNCH_DATE":"2020-04-22","MEAN_ANOMALY":"292.3340","DECAY_DATE":null,"REV_AT_EPOCH":"10640","RCS_SIZE":"LARGE","CENTER_NAME":"EARTH","EPHEMERIS_TYPE":"0","ELEMENT_SET_NO":"999","APOAPSIS":"511.282","FILE":"3362094","BSTAR":"0.00061523000000","GP_ID":"198919339","OBJECT_ID":"2020-025G","MEAN_MOTION_DOT":"0.00012670","ARG_OF_PERICENTER":"67.7941","ECCENTRICITY":"0.00027100","TIME_SYSTEM":"UTC","SEMIMAJOR_AXIS":"6887.550","MEAN_MOTION":"15.18817477","REF_FRAME":"TEME","TLE_LINE1":"1 45537U 20025G   22075.62977278  .00012670  00000-0  61523-3 0  9993","CLASSIFICATION_TYPE":"U","MEAN_ELEMENT_THEORY":"SGP4","MEAN_MOTION_DDOT":"0.0000000000000","EPOCH":"2022-03-16T15:06:52.368192","PERIAPSIS":"507.549","OBJECT_NAME":"STARLINK-1353","OBJECT_TYPE":"PAYLOAD","TLE_LINE2":"2 45537  52.9987 118.7765 0002710  67.7941 292.3340 15.18817477106408","COUNTRY_CODE":"US"},{"OBJECT_ID":"2020-025H","SEMIMAJOR_AXIS":"6925.486","MEAN_MOTION_DOT":"-0.00000487","ECCENTRICITY":"0.00014720","ARG_OF_PERICENTER":"61.5319","TIME_SYSTEM":"UTC","EPOCH":"2022-03-16T16:50:03.563232","PERIAPSIS":"546.331","MEAN_MOTION_DDOT":"0.0000000000000","MEAN_ELEMENT_THEORY":"SGP4","REF_FRAME":"TEME","CLASSIFICATION_TYPE":"U","TLE_LINE1":"1 45538U 20025H   22075.70143013 -.00000487  00000-0 -13818-4 0  9995","MEAN_MOTION":"15.06355317","TLE_LINE2":"2 45538  53.0540 153.8263 0001472  61.5319 298.5818 15.06355317105947","COUNTRY_CODE":"US","OBJECT_TYPE":"PAYLOAD","OBJECT_NAME":"STARLINK-1362","DECAY_DATE":null,"PERIOD":"95.595","LAUNCH_DATE":"2020-04-22","MEAN_ANOMALY":"298.5818","NORAD_CAT_ID":"45538","INCLINATION":"53.0540","RA_OF_ASC_NODE":"153.8263","SITE":"AFETR","RCS_SIZE":"LARGE","REV_AT_EPOCH":"10594","CENTER_NAME":"EARTH","FILE":"3362094","BSTAR":"-0.00001381800000","GP_ID":"198920079","APOAPSIS":"548.370","ELEMENT_SET_NO":"999","EPHEMERIS_TYPE":"0"}];
